{
    "links": {
        "self": "http://www.neowsapp.com/rest/v1/neo/54016683?api_key=iIulBulltgU6a56xZRHN4H3l9WmuAYTsLGpBGhQ2"
    },
    "id": "54016683",
    "neo_reference_id": "54016683",
    "name": "(2020 HH4)",
    "designation": "2020 HH4",
    "nasa_jpl_url": "http://ssd.jpl.nasa.gov/sbdb.cgi?sstr=54016683",
    "absolute_magnitude_h": 22.439,
    "estimated_diameter": {
        "kilometers": {
            "estimated_diameter_min": 0.0864480053,
            "estimated_diameter_max": 0.1933036163
        },
        "meters": {
            "estimated_diameter_min": 86.4480052573,
            "estimated_diameter_max": 193.3036162746
        },
        "miles": {
            "estimated_diameter_min": 0.0537162835,
            "estimated_diameter_max": 0.1201132613
        },
        "feet": {
            "estimated_diameter_min": 283.6220735685,
            "estimated_diameter_max": 634.1982364185
        }
    },
    "is_potentially_hazardous_asteroid": false,
    "close_approach_data": [
        {
            "close_approach_date": "2020-05-06",
            "close_approach_date_full": "2020-May-06 21:31",
            "epoch_date_close_approach": 1588800660000,
            "relative_velocity": {
                "kilometers_per_second": "18.8842860612",
                "kilometers_per_hour": "67983.4298203913",
                "miles_per_hour": "42242.2594903426"
            },
            "miss_distance": {
                "astronomical": "0.1645981118",
                "lunar": "64.0286654902",
                "kilometers": "24623526.931301866",
                "miles": "15300350.1484471108"
            },
            "orbiting_body": "Earth"
        }
    ],
    "orbital_data": {
        "orbit_id": "3",
        "orbit_determination_date": "2020-05-18 06:40:56",
        "first_observation_date": "2020-04-20",
        "last_observation_date": "2020-05-17",
        "data_arc_in_days": 27,
        "observations_used": 28,
        "orbit_uncertainty": "7",
        "minimum_orbit_intersection": ".131695",
        "jupiter_tisserand_invariant": "3.528",
        "epoch_osculation": "2459000.5",
        "eccentricity": ".4763564987636206",
        "semi_major_axis": "2.023032399771294",
        "inclination": "29.37735795631522",
        "ascending_node_longitude": "44.53067938716909",
        "orbital_period": "1050.999923074445",
        "perihelion_distance": "1.059347768930875",
        "perihelion_argument": "222.2000762515812",
        "aphelion_distance": "2.986717030611712",
        "perihelion_time": "2459008.619185119277",
        "mean_anomaly": "357.2189278240957",
        "mean_motion": ".3425309480013161",
        "equinox": "J2000",
        "orbit_class": {
            "orbit_class_type": "AMO",
            "orbit_class_description": "Near-Earth asteroid orbits similar to that of 1221 Amor",
            "orbit_class_range": "1.017 AU < q (perihelion) < 1.3 AU"
        }
    },
    "is_sentry_object": false
}